CCSDS_OMM_VERS = 2.0
CREATION_DATE  = 
ORIGINATOR     = 

OBJECT_NAME    = STARLINK-36213
OBJECT_ID      = 2025-304W
CENTER_NAME    = EARTH
REF_FRAME      = TEME
TIME_SYSTEM    = UTC
MEAN_ELEMENT_THEORY = SGP/SGP4

EPOCH          = 2026-01-09T10:42:17.576928
MEAN_MOTION    = 15.52552537
ECCENTRICITY   = .0003455
INCLINATION    = 70.0001
RA_OF_ASC_NODE = 329.7097
ARG_OF_PERICENTER = 269.5995
MEAN_ANOMALY   = 90.4796

EPHEMERIS_TYPE = 0
CLASSIFICATION_TYPE = U
NORAD_CAT_ID   = 67212
ELEMENT_SET_NO = 999
REV_AT_EPOCH   = 486
BSTAR          = .10196613E-2
MEAN_MOTION_DOT = .6314E-3
MEAN_MOTION_DDOT = 0

CCSDS_OMM_VERS = 2.0
CREATION_DATE  = 
ORIGINATOR     = 

OBJECT_NAME    = STARLINK-36199
OBJECT_ID      = 2025-304X
CENTER_NAME    = EARTH
REF_FRAME      = TEME
TIME_SYSTEM    = UTC
MEAN_ELEMENT_THEORY = SGP/SGP4

EPOCH          = 2026-01-09T10:41:47.933088
MEAN_MOTION    = 15.52544773
ECCENTRICITY   = .00033152
INCLINATION    = 70.0002
RA_OF_ASC_NODE = 329.7081
ARG_OF_PERICENTER = 269.3348
MEAN_ANOMALY   = 90.7459

EPHEMERIS_TYPE = 0
CLASSIFICATION_TYPE = U
NORAD_CAT_ID   = 67213
ELEMENT_SET_NO = 999
REV_AT_EPOCH   = 486
BSTAR          = .72378464E-3
MEAN_MOTION_DOT = .44652E-3
MEAN_MOTION_DDOT = 0

CCSDS_OMM_VERS = 2.0
CREATION_DATE  = 
ORIGINATOR     = 

OBJECT_NAME    = STARLINK-36203
OBJECT_ID      = 2025-304Y
CENTER_NAME    = EARTH
REF_FRAME      = TEME
TIME_SYSTEM    = UTC
MEAN_ELEMENT_THEORY = SGP/SGP4

EPOCH          = 2026-01-09T10:41:18.267648
MEAN_MOTION    = 15.52565532
ECCENTRICITY   = .00033257
INCLINATION    = 70.0001
RA_OF_ASC_NODE = 329.7073
ARG_OF_PERICENTER = 271.4219
MEAN_ANOMALY   = 88.6587

EPHEMERIS_TYPE = 0
CLASSIFICATION_TYPE = U
NORAD_CAT_ID   = 67214
ELEMENT_SET_NO = 999
REV_AT_EPOCH   = 486
BSTAR          = .99440255E-3
MEAN_MOTION_DOT = .61588E-3
MEAN_MOTION_DDOT = 0

CCSDS_OMM_VERS = 2.0
CREATION_DATE  = 
ORIGINATOR     = 

OBJECT_NAME    = STARLINK-36221
OBJECT_ID      = 2025-304Z
CENTER_NAME    = EARTH
REF_FRAME      = TEME
TIME_SYSTEM    = UTC
MEAN_ELEMENT_THEORY = SGP/SGP4

EPOCH          = 2026-01-09T10:40:48.794880
MEAN_MOTION    = 15.52560431
ECCENTRICITY   = .00031169
INCLINATION    = 70.0001
RA_OF_ASC_NODE = 329.7061
ARG_OF_PERICENTER = 270.5332
MEAN_ANOMALY   = 89.5498

EPHEMERIS_TYPE = 0
CLASSIFICATION_TYPE = U
NORAD_CAT_ID   = 67215
ELEMENT_SET_NO = 999
REV_AT_EPOCH   = 486
BSTAR          = .9524759E-3
MEAN_MOTION_DOT = .58952E-3
MEAN_MOTION_DDOT = 0

CCSDS_OMM_VERS = 2.0
CREATION_DATE  = 
ORIGINATOR     = 

OBJECT_NAME    = STARLINK-36212
OBJECT_ID      = 2025-304AA
CENTER_NAME    = EARTH
REF_FRAME      = TEME
TIME_SYSTEM    = UTC
MEAN_ELEMENT_THEORY = SGP/SGP4

EPOCH          = 2026-01-09T10:40:19.204608
MEAN_MOTION    = 15.52547751
ECCENTRICITY   = .00031993
INCLINATION    = 70.0001
RA_OF_ASC_NODE = 329.7043
ARG_OF_PERICENTER = 272.4679
MEAN_ANOMALY   = 87.6141

EPHEMERIS_TYPE = 0
CLASSIFICATION_TYPE = U
NORAD_CAT_ID   = 67216
ELEMENT_SET_NO = 999
REV_AT_EPOCH   = 486
BSTAR          = .12831066E-2
MEAN_MOTION_DOT = .79647E-3
MEAN_MOTION_DDOT = 0

CCSDS_OMM_VERS = 2.0
CREATION_DATE  = 
ORIGINATOR     = 

OBJECT_NAME    = STARLINK-36216
OBJECT_ID      = 2025-304AB
CENTER_NAME    = EARTH
REF_FRAME      = TEME
TIME_SYSTEM    = UTC
MEAN_ELEMENT_THEORY = SGP/SGP4

EPOCH          = 2026-01-09T10:39:49.459680
MEAN_MOTION    = 15.52557540
ECCENTRICITY   = .00031784
INCLINATION    = 70.0001
RA_OF_ASC_NODE = 329.7031
ARG_OF_PERICENTER = 271.1576
MEAN_ANOMALY   = 88.9247

EPHEMERIS_TYPE = 0
CLASSIFICATION_TYPE = U
NORAD_CAT_ID   = 67217
ELEMENT_SET_NO = 999
REV_AT_EPOCH   = 486
BSTAR          = .14362251E-2
MEAN_MOTION_DOT = .89311E-3
MEAN_MOTION_DDOT = 0

CCSDS_OMM_VERS = 2.0
CREATION_DATE  = 
ORIGINATOR     = 

OBJECT_NAME    = STARLINK-36211
OBJECT_ID      = 2025-304AC
CENTER_NAME    = EARTH
REF_FRAME      = TEME
TIME_SYSTEM    = UTC
MEAN_ELEMENT_THEORY = SGP/SGP4

EPOCH          = 2026-01-09T10:39:19.910880
MEAN_MOTION    = 15.52561195
ECCENTRICITY   = .00032031
INCLINATION    = 70.0001
RA_OF_ASC_NODE = 329.7022
ARG_OF_PERICENTER = 266.3541
MEAN_ANOMALY   = 93.7280

EPHEMERIS_TYPE = 0
CLASSIFICATION_TYPE = U
NORAD_CAT_ID   = 67218
ELEMENT_SET_NO = 999
REV_AT_EPOCH   = 483
BSTAR          = .96388669E-3
MEAN_MOTION_DOT = .59668E-3
MEAN_MOTION_DDOT = 0

CCSDS_OMM_VERS = 2.0
CREATION_DATE  = 
ORIGINATOR     = 

OBJECT_NAME    = DISKSAT C
OBJECT_ID      = 2025-305A
CENTER_NAME    = EARTH
REF_FRAME      = TEME
TIME_SYSTEM    = UTC
MEAN_ELEMENT_THEORY = SGP/SGP4

EPOCH          = 2026-01-05T16:46:33.719232
MEAN_MOTION    = 15.06198836
ECCENTRICITY   = .00031547
INCLINATION    = 45.0131
RA_OF_ASC_NODE = 223.8990
ARG_OF_PERICENTER = 11.0070
MEAN_ANOMALY   = 349.0874

EPHEMERIS_TYPE = 0
CLASSIFICATION_TYPE = U
NORAD_CAT_ID   = 67219
ELEMENT_SET_NO = 999
REV_AT_EPOCH   = 279
BSTAR          = .84297594E-4
MEAN_MOTION_DOT = .1015E-4
MEAN_MOTION_DDOT = 0

CCSDS_OMM_VERS = 2.0
CREATION_DATE  = 
ORIGINATOR     = 

OBJECT_NAME    = DISKSAT B
OBJECT_ID      = 2025-305B
CENTER_NAME    = EARTH
REF_FRAME      = TEME
TIME_SYSTEM    = UTC
MEAN_ELEMENT_THEORY = SGP/SGP4

EPOCH          = 2026-01-05T10:25:21.460224
MEAN_MOTION    = 15.06147621
ECCENTRICITY   = .00032437
INCLINATION    = 45.0028
RA_OF_ASC_NODE = 225.3108
ARG_OF_PERICENTER = 352.9991
MEAN_ANOMALY   = 7.0838

EPHEMERIS_TYPE = 0
CLASSIFICATION_TYPE = U
NORAD_CAT_ID   = 67220
ELEMENT_SET_NO = 999
REV_AT_EPOCH   = 275
BSTAR          = .83452852E-4
MEAN_MOTION_DOT = .1001E-4
MEAN_MOTION_DDOT = 0

CCSDS_OMM_VERS = 2.0
CREATION_DATE  = 
ORIGINATOR     = 

OBJECT_NAME    = DISKSAT D
OBJECT_ID      = 2025-305C
CENTER_NAME    = EARTH
REF_FRAME      = TEME
TIME_SYSTEM    = UTC
MEAN_ELEMENT_THEORY = SGP/SGP4

EPOCH          = 2026-01-08T22:48:09.218016
MEAN_MOTION    = 15.06203255
ECCENTRICITY   = .0002446
INCLINATION    = 45.0018
RA_OF_ASC_NODE = 206.7414
ARG_OF_PERICENTER = 6.6106
MEAN_ANOMALY   = 353.4801

EPHEMERIS_TYPE = 0
CLASSIFICATION_TYPE = U
NORAD_CAT_ID   = 67221
ELEMENT_SET_NO = 999
REV_AT_EPOCH   = 328
BSTAR          = .65623E-3
MEAN_MOTION_DOT = .9542E-4
MEAN_MOTION_DDOT = 0

CCSDS_OMM_VERS = 2.0
CREATION_DATE  = 
ORIGINATOR     = 

OBJECT_NAME    = DISKSAT A
OBJECT_ID      = 2025-305D
CENTER_NAME    = EARTH
REF_FRAME      = TEME
TIME_SYSTEM    = UTC
MEAN_ELEMENT_THEORY = SGP/SGP4

EPOCH          = 2026-01-08T19:38:37.273344
MEAN_MOTION    = 15.06154760
ECCENTRICITY   = .000244
INCLINATION    = 45.0019
RA_OF_ASC_NODE = 207.4498
ARG_OF_PERICENTER = 13.2570
MEAN_ANOMALY   = 346.8368

EPHEMERIS_TYPE = 0
CLASSIFICATION_TYPE = U
NORAD_CAT_ID   = 67222
ELEMENT_SET_NO = 999
REV_AT_EPOCH   = 325
BSTAR          = .89695E-3
MEAN_MOTION_DOT = .1312E-3
MEAN_MOTION_DDOT = 0

CCSDS_OMM_VERS = 2.0
CREATION_DATE  = 
ORIGINATOR     = 

OBJECT_NAME    = ELECTRON KICK STAGE R/B
OBJECT_ID      = 2025-305E
CENTER_NAME    = EARTH
REF_FRAME      = TEME
TIME_SYSTEM    = UTC
MEAN_ELEMENT_THEORY = SGP/SGP4

EPOCH          = 2025-12-23T06:58:48.011808
MEAN_MOTION    = 15.48545747
ECCENTRICITY   = .017749
INCLINATION    = 44.9877
RA_OF_ASC_NODE = 292.9264
ARG_OF_PERICENTER = 166.6089
MEAN_ANOMALY   = 193.9601

EPHEMERIS_TYPE = 0
CLASSIFICATION_TYPE = U
NORAD_CAT_ID   = 67223
ELEMENT_SET_NO = 999
REV_AT_EPOCH   = 79
BSTAR          = .18366E-3
MEAN_MOTION_DOT = .18707E-3
MEAN_MOTION_DDOT = 0

