STARLINK-36213          
1 67212U 25304W   26009.44603677  .00063140  00000+0  10197-2 0  9999
2 67212  70.0001 329.7097 0003455 269.5995  90.4796 15.52552537  4860
STARLINK-36199          
1 67213U 25304X   26009.44569367  .00044652  00000+0  72378-3 0  9994
2 67213  70.0002 329.7081 0003315 269.3348  90.7459 15.52544773  4862
STARLINK-36203          
1 67214U 25304Y   26009.44535032  .00061588  00000+0  99440-3 0  9993
2 67214  70.0001 329.7073 0003325 271.4219  88.6587 15.52565532  4869
STARLINK-36221          
1 67215U 25304Z   26009.44500920  .00058952  00000+0  95248-3 0  9995
2 67215  70.0001 329.7061 0003116 270.5332  89.5498 15.52560431  4865
STARLINK-36212          
1 67216U 25304AA  26009.44466672  .00079647  00000+0  12831-2 0  9991
2 67216  70.0001 329.7043 0003199 272.4679  87.6141 15.52547751  4866
STARLINK-36216          
1 67217U 25304AB  26009.44432245  .00089311  00000+0  14362-2 0  9991
2 67217  70.0001 329.7031 0003178 271.1576  88.9247 15.52557540  4861
STARLINK-36211          
1 67218U 25304AC  26009.44398045  .00059668  00000+0  96389-3 0  9993
2 67218  70.0001 329.7022 0003203 266.3541  93.7280 15.52561195  4838
DISKSAT C               
1 67219U 25305A   26005.69900138  .00001015  00000+0  84298-4 0  9990
2 67219  45.0131 223.8990 0003154  11.0070 349.0874 15.06198836  2796
DISKSAT B               
1 67220U 25305B   26005.43427616  .00001001  00000+0  83453-4 0  9996
2 67220  45.0028 225.3108 0003243 352.9991   7.0838 15.06147621  2752
DISKSAT D               
1 67221U 25305C   26008.95010669  .00009542  00000+0  65623-3 0  9999
2 67221  45.0018 206.7414 0002446   6.6106 353.4801 15.06203255  3283
DISKSAT A               
1 67222U 25305D   26008.81848696  .00013120  00000+0  89695-3 0  9996
2 67222  45.0019 207.4498 0002440  13.2570 346.8368 15.06154760  3255
ELECTRON KICK STAGE R/B 
1 67223U 25305E   25357.29083347  .00018707  00000+0  18366-3 0  9992
2 67223  44.9877 292.9264 0177490 166.6089 193.9601 15.48545747   794
